LEMUR-2-ALISIA          
1 62706U 25009DB  26156.48255012  .00009088  00000+0  68682-3 0  9991
2 62706  97.6970 238.7318 0000638 191.5762 168.5448 15.02593730 98403
LEMUR-2-ROUNDTRIPPER    
1 62711U 25009DG  26155.18402124  .00010258  00000+0  75496-3 0  9993
2 62711  97.7228 237.8844 0004107 173.7535 186.3743 15.03559606 75670
LEMUR-2-MYNAMEISJEFF    
1 62712U 25009DH  26155.44873915  .00010819  00000+0  79556-3 0  9997
2 62712  97.7280 238.5214 0002432 203.8502 156.2611 15.03581129 75716
LEMUR-2-LEIA-PHILIP     
1 63246U 25052AN  26156.50839508  .00002183  00000+0  19334-3 0  9999
2 63246  97.6839  48.6547 0002114 262.3089  97.7893 14.97278871 66927
LEMUR-2-LIA-MARTIN      
1 63248U 25052AQ  26156.51699455  .00006068  00000+0  52269-3 0  9997
2 63248  97.6901  49.1210 0002069 183.3853 176.7356 14.97696548 66930
LEMUR-2-DELOITTE-1      
1 63259U 25052BB  26156.49183513  .00004206  00000+0  36560-3 0  9997
2 63259  97.6920  49.4259 0002173 118.1097 242.0344 14.97512607 66949
LEMUR-2-EMERSONROSE     
1 63261U 25052BD  26155.67753272  .00003995  00000+0  33451-3 0  9994
2 63261  97.6915  49.1587 0002866  79.0066 281.1480 14.98995914 66860
LEMUR-2-MARACHE-FRAN    
1 63262U 25052BE  26156.46169948  .00006876  00000+0  55769-3 0  9991
2 63262  97.6941  50.2232 0006373  59.8097 300.3757 14.99969235 67003
LEMUR-2-THEFALCONER     
1 63264U 25052BG  26156.51660868  .00004938  00000+0  43058-3 0  9991
2 63264  97.6872  49.0820 0003603  65.7117 294.4481 14.97304514 66949
LEMUR-2-UNTITLED-SC     
1 63351U 25061A   26156.71662705  .00003824  00000+0  21728-3 0  9995
2 63351  97.5635 132.1633 0017271 308.3140  51.6538 15.13391439 65852
LEMUR-2-ESPERANZA       
1 63352U 25061B   26156.43001287  .00003846  00000+0  21801-3 0  9993
2 63352  97.5640 131.9696 0016927 308.8290  51.1429 15.13481505 65817
LEMUR-2-KREMPEL-BRO2    
1 63353U 25061C   26156.65865277  .00004286  00000+0  23948-3 0  9998
2 63353  97.5689 132.7150 0017603 299.6587  60.2891 15.13917825 65861
LEMUR-2-THERMORAPTOR    
1 63354U 25061D   26156.44304036  .00004045  00000+0  22579-3 0  9999
2 63354  97.5693 132.5743 0017386 299.3679  60.5815 15.13993041 65830
LEMUR-2-TILLINFINITY    
1 63356U 25061F   26156.71966128  .00004136  00000+0  22638-3 0  9994
2 63356  97.5607 132.7668 0016267 289.3211  70.6261 15.14697443 65906
LEMUR-2-LANGER2SPACE    
1 63358U 25061H   26156.64978727  .00003881  00000+0  21570-3 0  9996
2 63358  97.5614 132.4351 0015110 301.1846  58.7904 15.14199362 65879
LEMUR-2-BALTO           
1 63395U 25052BH  26156.51294953  .00006276  00000+0  50969-3 0  9990
2 63395  97.6878  50.2608 0006409  86.9827 273.2130 14.99955251 67015
LEMUR-2-KRISH           
1 64561U 25135AK  26156.57106065  .00005268  00000+0  47359-3 0  9999
2 64561  97.7729 271.5301 0001153 100.4892 259.6459 14.96093244 52186
LEMUR-2-HUBBLE-5        
1 64840U 25135BT  26156.57155394  .00001494  00000+0  14515-3 0  9993
2 64840  97.7708 271.2344 0006062  31.3808 328.7772 14.94098576 52176
LEMUR-2-KARENDARRELL    
1 64841U 25135BU  26156.57786714  .00008472  00000+0  68628-3 0  9997
2 64841  97.7676 272.8081 0008960 247.3691 112.6585 14.99936745 52271
LEMUR-2-LUCILLE-ROSE    
1 65403U 25135BV  26156.55201350  .00007792  00000+0  63046-3 0  9991
2 65403  97.7774 272.7867 0010643 328.2612  31.7968 14.99996805 46899
LEMUR-2-AFFIE-WAUWIE    
1 66295U 25248C   26156.34516479  .00012446  00000+0  47373-3 0  9991
2 66295  45.3864 179.1302 0009104   8.2322 351.8715 15.26809642 32787
LEMUR-2-DEANANDMAEVE    
1 66678U 25276N   26156.46238068  .00006659  00000+0  31592-3 0  9990
2 66678  97.4207 230.1339 0006779  51.3980 308.7861 15.19581745 28638
LEMUR-2-STAS-GORBUK     
1 66686U 25276W   26156.47424927  .00006070  00000+0  29105-3 0  9995
2 66686  97.4244 230.2012 0006252  51.7205 308.4592 15.19250401 28637
LEMUR-2-TEODOR          
1 66768U 25276DG  26156.47085351  .00006228  00000+0  28460-3 0  9998
2 66768  97.4148 230.4193 0001742 124.6345 235.5055 15.20917520 28668
LEMUR-2-LAILA           
1 66776U 25276DQ  26156.44646503  .00005666  00000+0  25760-3 0  9991
2 66776  97.4172 230.5089 0001435 147.7508 212.3816 15.21136249 28665
LEMUR-2-CELIJO-SB-PK    
1 66781U 25276DW  26156.42856214  .00006538  00000+0  53215-3 0  9992
2 66781  97.5284 227.5913 0008713 161.2327 198.9219 14.99826128 20860
