OBJECT_NAME,OBJECT_ID,EPOCH,MEAN_MOTION,ECCENTRICITY,INCLINATION,RA_OF_ASC_NODE,ARG_OF_PERICENTER,MEAN_ANOMALY,EPHEMERIS_TYPE,CLASSIFICATION_TYPE,NORAD_CAT_ID,ELEMENT_SET_NO,REV_AT_EPOCH,BSTAR,MEAN_MOTION_DOT,MEAN_MOTION_DDOT
LEMUR-2-ALISIA,2025-009DB,2026-06-05T11:34:52.330368,15.02593730,.0000638,97.6970,238.7318,191.5762,168.5448,0,U,62706,999,9840,.68682E-3,.9088E-4,0
LEMUR-2-ROUNDTRIPPER,2025-009DG,2026-06-04T04:24:59.435136,15.03559606,.00041072,97.7228,237.8844,173.7535,186.3743,0,U,62711,999,7567,.75495807E-3,.10258E-3,0
LEMUR-2-MYNAMEISJEFF,2025-009DH,2026-06-04T10:46:11.062560,15.03581129,.00024327,97.7280,238.5214,203.8502,156.2611,0,U,62712,999,7571,.79556037E-3,.10819E-3,0
LEMUR-2-LEIA-PHILIP,2025-052AN,2026-06-05T12:12:05.334912,14.97278871,.0002114,97.6839,48.6547,262.3089,97.7893,0,U,63246,999,6692,.19334E-3,.2183E-4,0
LEMUR-2-LIA-MARTIN,2025-052AQ,2026-06-05T12:24:28.329120,14.97696548,.0002069,97.6901,49.1210,183.3853,176.7356,0,U,63248,999,6693,.52269E-3,.6068E-4,0
LEMUR-2-DELOITTE-1,2025-052BB,2026-06-05T11:48:14.555232,14.97512607,.0002173,97.6920,49.4259,118.1097,242.0344,0,U,63259,999,6694,.3656E-3,.4206E-4,0
LEMUR-2-EMERSONROSE,2025-052BD,2026-06-04T16:15:38.827008,14.98995914,.00028667,97.6915,49.1587,79.0066,281.1480,0,U,63261,999,6686,.33451308E-3,.3995E-4,0
LEMUR-2-MARACHE-FRAN,2025-052BE,2026-06-05T11:04:50.835072,14.99969235,.0006373,97.6941,50.2232,59.8097,300.3757,0,U,63262,999,6700,.55769E-3,.6876E-4,0
LEMUR-2-THEFALCONER,2025-052BG,2026-06-05T12:23:54.989952,14.97304514,.0003603,97.6872,49.0820,65.7117,294.4481,0,U,63264,999,6694,.43058E-3,.4938E-4,0
LEMUR-2-UNTITLED-SC,2025-061A,2026-06-05T17:11:56.577120,15.13391439,.0017271,97.5635,132.1633,308.3140,51.6538,0,U,63351,999,6585,.21728E-3,.3824E-4,0
LEMUR-2-ESPERANZA,2025-061B,2026-06-05T10:19:13.111968,15.13481505,.0016927,97.5640,131.9696,308.8290,51.1429,0,U,63352,999,6581,.21801E-3,.3846E-4,0
LEMUR-2-KREMPEL-BRO2,2025-061C,2026-06-05T15:48:27.599328,15.13917825,.0017603,97.5689,132.7150,299.6587,60.2891,0,U,63353,999,6586,.23948E-3,.4286E-4,0
LEMUR-2-THERMORAPTOR,2025-061D,2026-06-05T10:37:58.687104,15.13993041,.0017386,97.5693,132.5743,299.3679,60.5815,0,U,63354,999,6583,.22579E-3,.4045E-4,0
LEMUR-2-TILLINFINITY,2025-061F,2026-06-05T17:16:18.734592,15.14697443,.0016267,97.5607,132.7668,289.3211,70.6261,0,U,63356,999,6590,.22638E-3,.4136E-4,0
LEMUR-2-LANGER2SPACE,2025-061H,2026-06-05T15:35:41.620128,15.14199362,.001511,97.5614,132.4351,301.1846,58.7904,0,U,63358,999,6587,.2157E-3,.3881E-4,0
LEMUR-2-BALTO,2025-052BH,2026-06-05T12:18:38.839392,14.99955251,.0006409,97.6878,50.2608,86.9827,273.2130,0,U,63395,999,6701,.50969E-3,.6276E-4,0
LEMUR-2-KRISH,2025-135AK,2026-06-05T13:42:19.640160,14.96093244,.0001153,97.7729,271.5301,100.4892,259.6459,0,U,64561,999,5218,.47359E-3,.5268E-4,0
LEMUR-2-HUBBLE-5,2025-135BT,2026-06-05T13:43:02.260416,14.94098576,.0006062,97.7708,271.2344,31.3808,328.7772,0,U,64840,999,5217,.14515E-3,.1494E-4,0
LEMUR-2-KARENDARRELL,2025-135BU,2026-06-05T13:52:07.720896,14.99936745,.000896,97.7676,272.8081,247.3691,112.6585,0,U,64841,999,5227,.68628E-3,.8472E-4,0
LEMUR-2-LUCILLE-ROSE,2025-135BV,2026-06-05T13:14:53.966400,14.99996805,.0010643,97.7774,272.7867,328.2612,31.7968,0,U,65403,999,4689,.63046E-3,.7792E-4,0
LEMUR-2-AFFIE-WAUWIE,2025-248C,2026-06-05T08:17:02.237856,15.26809642,.0009104,45.3864,179.1302,8.2322,351.8715,0,U,66295,999,3278,.47373E-3,.12446E-3,0
LEMUR-2-DEANANDMAEVE,2025-276N,2026-06-05T11:05:49.690752,15.19581745,.0006779,97.4207,230.1339,51.3980,308.7861,0,U,66678,999,2863,.31592E-3,.6659E-4,0
LEMUR-2-STAS-GORBUK,2025-276W,2026-06-05T11:22:55.136928,15.19250401,.0006252,97.4244,230.2012,51.7205,308.4592,0,U,66686,999,2863,.29105E-3,.607E-4,0
LEMUR-2-TEODOR,2025-276DG,2026-06-05T11:18:01.743264,15.20917520,.0001742,97.4148,230.4193,124.6345,235.5055,0,U,66768,999,2866,.2846E-3,.6228E-4,0
LEMUR-2-LAILA,2025-276DQ,2026-06-05T10:42:54.578592,15.21136249,.0001435,97.4172,230.5089,147.7508,212.3816,0,U,66776,999,2866,.2576E-3,.5666E-4,0
LEMUR-2-CELIJO-SB-PK,2025-276DW,2026-06-05T10:17:07.768896,14.99826128,.0008713,97.5284,227.5913,161.2327,198.9219,0,U,66781,999,2086,.53215E-3,.6538E-4,0
